OBJECT_NAME,OBJECT_ID,EPOCH,MEAN_MOTION,ECCENTRICITY,INCLINATION,RA_OF_ASC_NODE,ARG_OF_PERICENTER,MEAN_ANOMALY,EPHEMERIS_TYPE,CLASSIFICATION_TYPE,NORAD_CAT_ID,ELEMENT_SET_NO,REV_AT_EPOCH,BSTAR,MEAN_MOTION_DOT,MEAN_MOTION_DDOT
H-2A R/B,2006-002B,2026-07-18T21:17:09.214944,15.18480685,.00510085,98.2603,358.5991,153.5581,206.8270,0,U,28932,999,11433,.20898546E-3,.4372E-4,0
RESURS-DK 1,2006-021A,2026-07-18T21:30:01.454688,15.13326509,.00073308,69.9303,257.4641,267.0322,93.0005,0,U,29228,999,10737,.56239114E-4,.895E-5,0
CZ-4B R/B,2006-046C,2026-07-18T16:45:04.624416,15.17996712,.00329262,97.5434,244.2087,170.0290,190.1604,0,U,29507,999,7991,.96828421E-4,.1924E-4,0
CZ-2C R/B,2007-010B,2026-07-18T21:39:45.374400,14.20282374,.00577241,98.4121,306.7060,272.7635,86.6936,0,U,31114,999,99834,.39998765E-4,.45E-6,0
COSMO-SKYMED 1,2007-023A,2026-07-18T21:08:48.319584,14.97231291,.00017087,97.8851,32.0054,99.9562,260.1852,0,U,31598,999,3453,.14831992E-3,.1657E-4,0
COSMOS 2428,2007-029A,2026-07-18T22:20:40.402752,14.12936905,.00072616,70.9383,287.8282,73.8047,286.3873,0,U,31792,999,98263,.18120146E-3,.29E-5,0
SL-16 R/B,2007-029B,2026-07-18T22:42:34.413696,14.14853842,.00019054,70.9743,256.4676,257.6355,274.9448,0,U,31793,999,98393,.17345893E-3,.287E-5,0
KORONAS-FOTON,2009-003A,2026-07-18T22:08:02.400000,15.46356382,.00118455,82.4309,139.1404,50.8315,309.3984,0,U,33504,999,96600,.15396254E-3,.7659E-4,0
CZ-2C R/B,2011-030B,2026-07-18T20:16:39.713376,14.81536151,.00506983,97.8671,154.6647,283.9592,97.6939,0,U,37731,999,80951,.61402814E-4,.436E-5,0
H-2A R/B,2012-025E,2026-07-18T20:45:41.924448,14.95842889,.00426565,98.4846,177.6291,242.6197,117.0678,0,U,38341,999,76782,.73468185E-4,.764E-5,0
SHIJIAN-16 (SJ-16),2013-057A,2026-07-18T22:37:18.816960,14.92675135,.00156626,74.9739,296.5368,155.5999,204.5935,0,U,39358,999,69108,.23467292E-4,.213E-5,0
SL-4 R/B,2014-021B,2026-07-18T19:32:29.194656,15.42526441,.00895049,51.6064,55.7601,221.8175,137.5948,0,U,39679,999,67649,.12681891E-3,.5995E-4,0
ALOS-2,2014-029A,2026-07-18T22:14:19.554144,14.79471693,.00015933,97.9230,296.6369,90.7502,269.3892,0,U,39766,999,65627,.53798773E-4,.35E-5,0
YAOGAN-29,2015-069A,2026-07-18T22:55:12.977184,14.83106212,.00003949,98.0014,228.6362,0.5241,359.5973,0,U,41038,999,57533,-.19836952E-4,-.215E-5,0
ASTRO-H (HITOMI),2016-012A,2026-07-18T10:06:14.638464,15.10639796,.00096469,30.9977,232.4505,207.7740,152.2384,0,U,41337,999,57201,.64174204E-4,.1185E-4,0
HXMT (HUIYAN),2017-034A,2026-07-18T20:05:39.619104,15.18705784,.00318356,43.0153,6.7731,343.6262,16.3556,0,U,42758,999,50247,.99357819E-4,.1877E-4,0
SAOCOM 1A,2018-076A,2026-07-18T20:47:04.074432,14.82148525,.00014392,97.8886,26.1539,86.5411,273.5967,0,U,43641,999,42079,.41044716E-4,.274E-5,0
H-2A R/B,2018-084L,2026-07-18T15:41:10.099968,15.46284035,.00203302,98.8523,85.4439,287.4775,72.4248,0,U,43682,999,42598,.22575107E-3,.11086E-3,0
SAOCOM 1B,2020-059A,2026-07-18T23:09:12.189024,14.82146850,.00015142,97.8892,25.3478,82.7801,277.3585,0,U,46265,999,31819,.8347369E-4,.612E-5,0
CSS (TIANHE),2021-035A,2026-07-18T20:50:29.010912,15.58184735,.0002049,41.4683,129.5686,305.3680,54.6966,0,U,48274,999,29811,.1557625E-3,.11781E-3,0
COSMOS 2550,2021-056A,2026-07-18T21:51:38.147616,15.33849840,.00085296,67.1440,3.9429,269.7538,90.2640,0,U,48865,999,28358,.90829172E-4,.28E-4,0
CZ-2C R/B,2022-058K,2026-07-18T12:07:07.127040,15.64029106,.00301428,50.1860,0.2868,36.5675,323.7350,0,U,52794,999,23054,.24205197E-3,.23418E-3,0
CZ-2C R/B,2022-132E,2026-07-17T23:56:16.304352,15.75241570,.00089342,97.2889,207.4843,329.3088,30.7654,0,U,54039,999,21079,.29840195E-3,.44818E-3,0
GSLV R/B,2022-138AN,2026-07-18T20:41:47.955840,14.97392742,.00231085,87.3816,122.3480,40.0887,320.2044,0,U,54149,999,20355,.12725312E-3,.1515E-4,0
XRISM,2023-137A,2026-07-18T04:56:11.328288,15.12682622,.00078538,31.0010,158.6362,276.0934,83.8810,0,U,57800,999,15756,.12223057E-3,.2291E-4,0
ACS3,2024-077B,2026-07-18T04:39:56.685312,13.95327555,.01287573,97.1755,111.1141,33.4328,327.4885,0,U,59588,999,11236,.43059113E-2,.6221E-4,0
SPACEMOBILE-003,2024-163A,2026-07-18T21:27:00.580608,15.20716481,.00043841,52.9671,163.6352,205.8677,154.2099,0,U,61045,999,10259,.76472118E-4,.1377E-4,0
SPACEMOBILE-005,2024-163B,2026-07-18T06:51:23.658336,15.20722937,.00085608,52.9757,166.3840,205.2960,154.7616,0,U,61046,999,10249,.11125988E-3,.2152E-4,0
SPACEMOBILE-001,2024-163C,2026-07-18T06:48:59.718528,15.20703424,.00070948,52.9715,166.1008,203.8926,156.1740,0,U,61047,999,10249,.13734528E-4,-.22E-6,0
SPACEMOBILE-002,2024-163D,2026-07-18T22:12:12.993696,15.20616813,.00051426,52.9788,163.1952,205.6503,154.4236,0,U,61048,999,10259,-.12766347E-3,-.3161E-4,0
