H-2A R/B                
1 28932U 06002B   26199.88691221  .00004372  00000+0  20899-3 0  9992
2 28932  98.2603 358.5991 0051008 153.5581 206.8270 15.18480685114339
RESURS-DK 1             
1 29228U 06021A   26199.89585017  .00000895  00000+0  56239-4 0  9992
2 29228  69.9303 257.4641 0007330 267.0322  93.0005 15.13326509107379
CZ-4B R/B               
1 29507U 06046C   26199.69797019  .00001924  00000+0  96828-4 0  9996
2 29507  97.5434 244.2087 0032926 170.0290 190.1604 15.17996712 79910
CZ-2C R/B               
1 31114U 07010B   26199.90260850  .00000045  00000+0  39999-4 0  9996
2 31114  98.4121 306.7060 0057724 272.7635  86.6936 14.20282374998340
COSMO-SKYMED 1          
1 31598U 07023A   26199.88111481  .00001657  00000+0  14832-3 0  9996
2 31598  97.8851  32.0054 0001708  99.9562 260.1852 14.97231291 34534
COSMOS 2428             
1 31792U 07029A   26199.93102318  .00000290  00000+0  18120-3 0  9999
2 31792  70.9383 287.8282 0007261  73.8047 286.3873 14.12936905982631
SL-16 R/B               
1 31793U 07029B   26199.94623164  .00000287  00000+0  17346-3 0  9993
2 31793  70.9743 256.4676 0001905 257.6355 274.9448 14.14853842983939
KORONAS-FOTON           
1 33504U 09003A   26199.92225000  .00007659  00000+0  15396-3 0  9997
2 33504  82.4309 139.1404 0011845  50.8315 309.3984 15.46356382966006
CZ-2C R/B               
1 37731U 11030B   26199.84490409  .00000436  00000+0  61403-4 0  9991
2 37731  97.8671 154.6647 0050698 283.9592  97.6939 14.81536151809511
H-2A R/B                
1 38341U 12025E   26199.86506857  .00000764  00000+0  73468-4 0  9999
2 38341  98.4846 177.6291 0042656 242.6197 117.0678 14.95842889767825
SHIJIAN-16 (SJ-16)      
1 39358U 13057A   26199.94257890  .00000213  00000+0  23467-4 0  9996
2 39358  74.9739 296.5368 0015662 155.5999 204.5935 14.92675135691086
SL-4 R/B                
1 39679U 14021B   26199.81422679  .00005995  00000+0  12682-3 0  9997
2 39679  51.6064  55.7601 0089504 221.8175 137.5948 15.42526441676497
ALOS-2                  
1 39766U 14029A   26199.92661521  .00000350  00000+0  53799-4 0  9990
2 39766  97.9230 296.6369 0001593  90.7502 269.3892 14.79471693656271
YAOGAN-29               
1 41038U 15069A   26199.95501131 -.00000215  00000+0 -19837-4 0  9990
2 41038  98.0014 228.6362 0000394   0.5241 359.5973 14.83106212575339
ASTRO-H (HITOMI)        
1 41337U 16012A   26199.42100276  .00001185  00000+0  64174-4 0  9997
2 41337  30.9977 232.4505 0009646 207.7740 152.2384 15.10639796572015
HXMT (HUIYAN)           
1 42758U 17034A   26199.83726411  .00001877  00000+0  99358-4 0  9990
2 42758  43.0153   6.7731 0031835 343.6262  16.3556 15.18705784502474
SAOCOM 1A               
1 43641U 18076A   26199.86601938  .00000274  00000+0  41045-4 0  9998
2 43641  97.8886  26.1539 0001439  86.5411 273.5967 14.82148525420795
H-2A R/B                
1 43682U 18084L   26199.65358912  .00011086  00000+0  22575-3 0  9999
2 43682  98.8523  85.4439 0020330 287.4775  72.4248 15.46284035425984
SAOCOM 1B               
1 46265U 20059A   26199.96472441  .00000612  00000+0  83474-4 0  9991
2 46265  97.8892  25.3478 0001514  82.7801 277.3585 14.82146850318192
CSS (TIANHE)            
1 48274U 21035A   26199.86839133  .00011781  00000+0  15576-3 0  9998
2 48274  41.4683 129.5686 0002049 305.3680  54.6966 15.58184735298114
COSMOS 2550             
1 48865U 21056A   26199.91085819  .00002800  00000+0  90829-4 0  9994
2 48865  67.1440   3.9429 0008529 269.7538  90.2640 15.33849840283588
CZ-2C R/B               
1 52794U 22058K   26199.50494360  .00023418  00000+0  24205-3 0  9995
2 52794  50.1860   0.2868 0030142  36.5675 323.7350 15.64029106230546
CZ-2C R/B               
1 54039U 22132E   26198.99741093  .00044818  00000+0  29840-3 0  9999
2 54039  97.2889 207.4843 0008934 329.3088  30.7654 15.75241570210792
GSLV R/B                
1 54149U 22138AN  26199.86236060  .00001515  00000+0  12725-3 0  9998
2 54149  87.3816 122.3480 0023108  40.0887 320.2044 14.97392742203557
XRISM                   
1 57800U 23137A   26199.20568667  .00002291  00000+0  12223-3 0  9999
2 57800  31.0010 158.6362 0007853 276.0934  83.8810 15.12682622157569
ACS3                    
1 59588U 24077B   26199.19440608  .00006221  00000+0  43059-2 0  9997
2 59588  97.1755 111.1141 0128757  33.4328 327.4885 13.95327555112369
SPACEMOBILE-003         
1 61045U 24163A   26199.89375672  .00001377  00000+0  76472-4 0  9993
2 61045  52.9671 163.6352 0004384 205.8677 154.2099 15.20716481102590
SPACEMOBILE-005         
1 61046U 24163B   26199.28569049  .00002152  00000+0  11126-3 0  9996
2 61046  52.9757 166.3840 0008560 205.2960 154.7616 15.20722937102499
SPACEMOBILE-001         
1 61047U 24163C   26199.28402452 -.00000022  00000+0  13735-4 0  9995
2 61047  52.9715 166.1008 0007094 203.8926 156.1740 15.20703424102499
SPACEMOBILE-002         
1 61048U 24163D   26199.92515039 -.00003161  00000+0 -12766-3 0  9993
2 61048  52.9788 163.1952 0005142 205.6503 154.4236 15.20616813102595
